[{"OBJECT_NAME":"TIANQI-17","OBJECT_ID":"2025-105B","EPOCH":"2026-03-09T16:13:53.676480","MEAN_MOTION":13.99116409,"ECCENTRICITY":0.0011901,"INCLINATION":44.9793,"RA_OF_ASC_NODE":104.4582,"ARG_OF_PERICENTER":269.8023,"MEAN_ANOMALY":90.1446,"EPHEMERIS_TYPE":0,"CLASSIFICATION_TYPE":"U","NORAD_CAT_ID":64059,"ELEMENT_SET_NO":999,"REV_AT_EPOCH":4126,"BSTAR":0.0001561646,"MEAN_MOTION_DOT":9.9e-7,"MEAN_MOTION_DDOT":0},{"OBJECT_NAME":"COSMOS 1275 DEB","OBJECT_ID":"1981-053BA","EPOCH":"2026-03-09T20:03:11.233152","MEAN_MOTION":13.81183238,"ECCENTRICITY":0.0103275,"INCLINATION":82.8843,"RA_OF_ASC_NODE":15.161,"ARG_OF_PERICENTER":316.9251,"MEAN_ANOMALY":99.9735,"EPHEMERIS_TYPE":0,"CLASSIFICATION_TYPE":"U","NORAD_CAT_ID":12706,"ELEMENT_SET_NO":999,"REV_AT_EPOCH":22537,"BSTAR":0.0015911766,"MEAN_MOTION_DOT":1.768e-5,"MEAN_MOTION_DDOT":0}]
